OBJECT_NAME,OBJECT_ID,EPOCH,MEAN_MOTION,ECCENTRICITY,INCLINATION,RA_OF_ASC_NODE,ARG_OF_PERICENTER,MEAN_ANOMALY,EPHEMERIS_TYPE,CLASSIFICATION_TYPE,NORAD_CAT_ID,ELEMENT_SET_NO,REV_AT_EPOCH,BSTAR,MEAN_MOTION_DOT,MEAN_MOTION_DDOT
KUIPER-00029,2025-088U,2026-06-16T06:23:38.878944,14.80000516,.0000482,51.9013,15.8184,72.8961,287.2054,0,U,63742,999,6220,-.48875E-3,-.3951E-4,0
KUIPER-00030,2025-088V,2026-06-15T21:36:07.540128,14.79917113,.0000706,51.9036,36.2690,103.7080,256.3961,0,U,63743,999,6217,.21182E-3,.1393E-4,0
KUIPER-00031,2025-088W,2026-06-16T06:38:08.839680,14.76402415,.0001695,51.9024,18.8172,102.2015,257.9136,0,U,63744,999,6216,-.46831E-3,-.3497E-4,0
KUIPER-00032,2025-088X,2026-06-16T13:52:41.222496,15.40208558,.00041758,51.8683,264.9589,111.7475,248.3957,0,U,63745,999,6477,.28279703E-3,.11159E-3,0
KUIPER-00033,2025-088Y,2026-06-16T09:22:13.963296,14.79938396,.00007683,51.9024,49.1261,100.4700,259.6349,0,U,63746,999,6223,.30264146E-3,.2087E-4,0
KUIPER-00034,2025-088Z,2026-06-16T07:05:59.683488,14.79930942,.00007213,51.9032,12.0743,107.1911,252.9131,0,U,63747,999,6242,.10195935E-3,.556E-5,0
KUIPER-00035,2025-088AA,2026-06-16T08:04:24.004416,14.79932452,.00006953,51.9024,36.8742,97.9977,262.1064,0,U,63748,999,6213,.10396387E-3,.571E-5,0
KUIPER-00037,2025-088AB,2026-06-16T07:54:12.517056,14.79929140,.0000665,51.9029,35.7607,96.2577,263.8462,0,U,63749,999,6293,.55201994E-4,.2E-5,0
KUIPER-00038,2025-088AC,2026-06-16T07:39:05.234112,14.79932405,.00006891,51.9025,21.9692,101.8668,258.2372,0,U,63750,999,6212,.11248437E-3,.636E-5,0
STARLINK-11677 [DTC],2025-089A,2026-06-15T17:53:40.681536,15.70881447,.00026655,43.0017,61.5108,255.7967,104.2604,0,U,63751,999,6555,.10629317E-2,.138487E-2,0
STARLINK-11702 [DTC],2025-089B,2026-06-16T10:02:35.890944,15.70939761,.00048899,43.0038,57.0826,270.8898,89.1409,0,U,63752,999,6566,.12225784E-2,.160226E-2,0
STARLINK-11706 [DTC],2025-089C,2026-06-16T14:14:21.266880,15.70870590,.00020939,43.0010,55.8054,258.0713,101.9920,0,U,63753,999,6569,.16446789E-2,.216454E-2,0
STARLINK-11662 [DTC],2025-089D,2026-06-16T04:11:38.310144,15.71056197,.00082657,43.0120,58.7037,273.2280,86.7642,0,U,63754,999,6567,.16208533E-2,.215265E-2,0
STARLINK-11681 [DTC],2025-089E,2026-06-15T23:52:16.857984,15.70889238,.00014969,43.0002,59.9353,246.8093,113.2617,0,U,63755,999,6559,.17276833E-2,.227892E-2,0
STARLINK-11688 [DTC],2025-089F,2026-06-15T23:29:20.514624,15.70923654,.0002635,43.0026,59.8054,256.2873,103.7701,0,U,63756,999,6548,.13903E-2,.182568E-2,0
STARLINK-11676 [DTC],2025-089G,2026-06-16T13:59:04.211232,15.71037559,.00029505,43.0022,55.7182,290.7734,69.2817,0,U,63757,999,6558,.10455293E-2,.137092E-2,0
STARLINK-11705 [DTC],2025-089H,2026-06-15T23:44:38.092992,15.70927916,.00020128,43.0008,59.8917,252.1359,107.9289,0,U,63758,999,6554,.14366984E-2,.188847E-2,0
STARLINK-11703 [DTC],2025-089J,2026-06-16T14:29:38.132448,15.70899869,.00021061,43.0021,55.8846,262.1355,97.9274,0,U,63759,999,6569,.1100962E-2,.143652E-2,0
STARLINK-11701 [DTC],2025-089K,2026-06-16T14:06:42.526080,15.71038695,.00047055,43.0016,55.7593,287.4397,72.5956,0,U,63760,999,6569,.99742632E-3,.130711E-2,0
STARLINK-11660 [DTC],2025-089L,2026-06-16T09:47:19.373568,15.71062332,.00029327,43.0012,56.9953,281.5592,78.4947,0,U,63761,999,6561,.13560005E-2,.179026E-2,0
STARLINK-11699 [DTC],2025-089M,2026-06-16T09:16:55.677792,15.70899117,.00021381,43.0000,57.7195,269.8522,90.2101,0,U,63762,999,6565,.12130142E-2,.158601E-2,0
STARLINK-11693 [DTC],2025-089N,2026-06-16T14:30:57.655872,15.70907233,.00001216,42.9950,55.8916,186.6320,173.4546,0,U,63763,999,6558,.11202744E-2,.14627E-2,0
STARLINK-33760,2025-089P,2026-06-16T09:45:40.973472,15.27595116,.00009886,42.9997,207.8562,275.2120,84.8619,0,U,63764,999,6405,.6210332E-3,.16874E-3,0
STARLINK-33941,2025-089Q,2026-06-16T09:49:23.002464,15.27590667,.000097,42.9998,207.8750,270.9651,89.1089,0,U,63765,999,6404,.53027662E-3,.14363E-3,0
STARLINK-33824,2025-089R,2026-06-15T20:06:01.938816,15.27585493,.00017883,43.0015,211.3274,274.3291,85.7357,0,U,63766,999,6396,.42927094E-3,.11571E-3,0
STARLINK-33808,2025-089S,2026-06-16T09:32:43.819296,15.27596844,.00011004,43.0011,207.7866,267.3406,92.7320,0,U,63767,999,6405,.64967078E-3,.17667E-3,0
STARLINK-33844,2025-089T,2026-06-16T13:47:28.059648,15.27601111,.00020571,43.0012,206.5371,284.8976,75.1647,0,U,63768,999,6408,.55103401E-3,.14942E-3,0
STARLINK-33907,2025-089U,2026-06-16T09:40:07.831488,15.27592546,.00011088,42.9991,207.8261,275.0765,84.9960,0,U,63769,999,6400,.49918546E-3,.13505E-3,0
STARLINK-33884,2025-089V,2026-06-16T09:06:49.688064,15.27584707,.00047355,43.0014,207.6522,276.9875,83.0438,0,U,63770,999,6400,.43541725E-3,.11743E-3,0
STARLINK-33841,2025-089W,2026-06-16T09:17:56.621760,15.27566413,.00012573,42.9986,207.7072,256.8206,103.2506,0,U,63771,999,6400,.55671316E-3,.15083E-3,0
BIOMASS,2025-090A,2026-06-16T11:42:46.710432,14.67536912,.0001363,98.0740,354.8153,93.2285,266.9075,0,U,63772,999,6058,.16228595E-3,.872E-5,0
STARLINK-33769,2025-089X,2026-06-16T09:03:07.724736,15.27595701,.00009457,42.9927,207.6265,203.8444,156.2364,0,U,63773,999,6404,.61319009E-3,.16658E-3,0
STARLINK-33914,2025-089Y,2026-06-15T20:12:03.870144,15.27582090,.00008773,43.0004,206.9954,285.4799,74.5956,0,U,63774,999,6401,.48732972E-3,.13173E-3,0
STARLINK-33932,2025-091A,2026-06-16T10:06:27.920736,15.27598341,.00015407,43.0058,214.7975,120.4894,239.6110,0,U,63775,999,6404,.51988069E-3,.14079E-3,0
STARLINK-33930,2025-091B,2026-06-15T20:49:00.400800,15.27603402,.0001483,43.0025,218.3874,277.6923,82.3760,0,U,63776,999,6391,.42412E-3,.11435E-3,0
STARLINK-33911,2025-091C,2026-06-15T10:29:57.758784,15.27607873,.00011836,42.9998,213.3470,272.8030,87.2686,0,U,63777,999,6393,.55174046E-3,.14964E-3,0
STARLINK-33938,2025-091D,2026-06-16T05:48:04.200192,15.27580826,.0001234,42.9985,216.0298,262.0144,98.0568,0,U,63778,999,6406,.36121E-3,.9691E-4,0
STARLINK-33881,2025-091E,2026-06-16T09:31:31.604448,15.27592960,.00017514,43.0000,215.4810,273.8385,86.2267,0,U,63779,999,6399,.43661975E-3,.11777E-3,0
STARLINK-33846,2025-091F,2026-06-13T21:38:44.586816,15.27618547,.0001533,43.0025,229.4300,259.8608,100.2071,0,U,63780,999,6366,.49587E-3,.13424E-3,0
STARLINK-33883,2025-091G,2026-06-15T20:37:55.102656,15.27584932,.00018203,43.0040,218.3235,263.1298,96.9347,0,U,63781,999,6391,.37319722E-3,.10023E-3,0
STARLINK-33842,2025-091H,2026-06-16T10:24:58.388832,15.27587895,.00012236,42.9974,214.8915,279.1347,80.9367,0,U,63782,999,6409,.46482219E-3,.12554E-3,0
STARLINK-33892,2025-091J,2026-06-15T20:15:43.600032,15.27608304,.00019426,42.9978,218.2057,264.8378,95.2252,0,U,63783,999,6391,.59166736E-3,.16069E-3,0
STARLINK-33933,2025-091K,2026-06-15T20:17:06.124992,15.27580722,.00020072,43.0025,211.2614,271.3253,88.7369,0,U,63784,999,6410,.44279186E-3,.11943E-3,0
STARLINK-33923,2025-091M,2026-06-16T10:32:22.484832,15.27602597,.00001566,43.0032,214.9290,307.3419,52.7418,0,U,63786,999,6395,.52791256E-3,.14303E-3,0
STARLINK-33947,2025-091N,2026-06-15T20:56:26.572992,15.27576440,.0000519,42.9975,218.4234,70.1238,289.9669,0,U,63787,999,6391,.44335E-3,.11957E-3,0
STARLINK-33882,2025-091P,2026-06-15T20:13:51.838176,15.27589830,.00016984,42.9957,218.1913,272.3879,87.6778,0,U,63788,999,6390,.5648218E-3,.15318E-3,0
STARLINK-33875,2025-091Q,2026-06-16T10:04:37.059168,15.27594234,.00005625,43.0015,214.7803,267.3904,92.6884,0,U,63789,999,6400,.34396857E-3,.9219E-4,0
STARLINK-33869,2025-091R,2026-06-16T09:55:22.075680,15.27606014,.0000434,43.0060,214.7333,121.5098,238.5797,0,U,63790,999,6395,.59742304E-3,.16227E-3,0
STARLINK-33935,2025-091S,2026-06-16T14:00:01.000224,15.27571702,.00014823,43.0016,214.3606,282.3657,52.5144,0,U,63791,999,581,.19900355E-2,.54894E-3,0
STARLINK-33916,2025-091T,2026-06-15T20:45:20.013408,15.27564577,.0000661,43.0042,218.3604,271.0270,89.0506,0,U,63792,999,6391,.69297E-3,.18847E-3,0
STARLINK-33925,2025-091U,2026-06-16T10:00:54.989568,15.27604961,.00003647,42.9982,214.7596,237.0688,123.0129,0,U,63793,999,6411,.56392565E-3,.153E-3,0
STARLINK-33870,2025-091V,2026-06-16T09:51:40.351680,15.27585084,.00032044,43.0078,214.7202,280.5021,79.5470,0,U,63794,999,6400,.44388848E-3,.11975E-3,0
STARLINK-33867,2025-091W,2026-06-15T20:34:13.045152,15.27589066,.00020708,43.0017,218.3002,267.7301,92.3313,0,U,63795,999,6391,.49089397E-3,.13274E-3,0
STARLINK-33918,2025-091X,2026-06-14T21:03:44.097408,15.27608152,.0003179,43.0166,223.8514,267.4886,92.5602,0,U,63796,999,6381,.70146E-3,.19108E-3,0
STARLINK-33712,2025-091Y,2026-06-16T10:35:23.668224,15.27594006,.00007416,43.0018,218.4690,273.6156,86.4610,0,U,63797,999,6396,.41446663E-3,.11165E-3,0
STARLINK-33827,2025-091Z,2026-06-16T10:26:49.414560,15.27595713,.00008783,42.9996,214.8969,283.7080,76.3674,0,U,63798,999,6400,.67864738E-3,.18468E-3,0
STARLINK-33899,2025-091AA,2026-06-15T20:08:19.240512,15.27552286,.0001234,42.9993,218.1606,272.9731,87.0979,0,U,63799,999,6402,.62042811E-3,.16835E-3,0
STARLINK-33900,2025-091AB,2026-06-15T20:02:46.381920,15.27576537,.00004533,43.0055,218.1333,236.9817,123.0992,0,U,63800,999,6402,.39804544E-3,.10706E-3,0
STARLINK-33975,2025-091AC,2026-06-16T09:49:49.300032,15.27585301,.00019757,43.0076,214.7078,279.7216,80.3413,0,U,63802,999,6411,.44344806E-3,.11962E-3,0
STARLINK-33951,2025-091AD,2026-06-16T09:57:12.962304,15.27591786,.0001036,42.9960,214.7370,271.5192,88.5541,0,U,63803,999,6405,.48985063E-3,.13247E-3,0
STARLINK-33909,2025-092A,2026-06-16T04:29:23.121024,15.27603819,.00016661,43.0041,336.7155,270.2712,89.7949,0,U,63804,999,6367,.57263524E-3,.1554E-3,0
STARLINK-34029,2025-092B,2026-06-16T04:21:58.364064,15.27599984,.00028,42.9884,336.6696,261.4254,98.6281,0,U,63805,999,6367,.53170083E-3,.14408E-3,0
STARLINK-34102,2025-092C,2026-06-16T04:20:07.826496,15.27591211,.00019921,43.0007,336.6636,263.8427,96.2197,0,U,63806,999,6372,.87456275E-3,.23891E-3,0
